{
  "type": "FeatureCollection",
  "features": [
    {"type":"Feature","properties":{"name":"Ghawar Field","type":"onshore","volume_bpd":3800000},"geometry":{"type":"Point","coordinates":[49.40,25.38]}},
    {"type":"Feature","properties":{"name":"Permian Basin","type":"onshore","volume_bpd":5600000},"geometry":{"type":"Point","coordinates":[-102.08,31.97]}},
    {"type":"Feature","properties":{"name":"Safaniya Field","type":"offshore","volume_bpd":1200000},"geometry":{"type":"Point","coordinates":[49.80,28.10]}},
    {"type":"Feature","properties":{"name":"Burgan Field","type":"onshore","volume_bpd":1100000},"geometry":{"type":"Point","coordinates":[48.05,29.05]}},
    {"type":"Feature","properties":{"name":"Rumaila Field","type":"onshore","volume_bpd":1400000},"geometry":{"type":"Point","coordinates":[47.30,30.55]}},
    {"type":"Feature","properties":{"name":"Daqing Oilfield","type":"onshore","volume_bpd":800000},"geometry":{"type":"Point","coordinates":[125.01,46.58]}},
    {"type":"Feature","properties":{"name":"Cantarell Complex","type":"offshore","volume_bpd":400000},"geometry":{"type":"Point","coordinates":[-92.17,19.85]}},
    {"type":"Feature","properties":{"name":"Samotlor Field","type":"onshore","volume_bpd":900000},"geometry":{"type":"Point","coordinates":[76.70,61.18]}},
    {"type":"Feature","properties":{"name":"Prudhoe Bay","type":"onshore","volume_bpd":300000},"geometry":{"type":"Point","coordinates":[-148.33,70.25]}},
    {"type":"Feature","properties":{"name":"Kashagan Field","type":"offshore","volume_bpd":400000},"geometry":{"type":"Point","coordinates":[51.53,46.24]}},
    {"type":"Feature","properties":{"name":"Thunder Horse","type":"offshore","volume_bpd":250000},"geometry":{"type":"Point","coordinates":[-89.00,28.19]}},
    {"type":"Feature","properties":{"name":"Johan Sverdrup","type":"offshore","volume_bpd":755000},"geometry":{"type":"Point","coordinates":[2.57,58.97]}},
    {"type":"Feature","properties":{"name":"Tupi / Lula","type":"offshore","volume_bpd":1000000},"geometry":{"type":"Point","coordinates":[-42.10,-25.30]}},
    {"type":"Feature","properties":{"name":"Tengiz Field","type":"onshore","volume_bpd":600000},"geometry":{"type":"Point","coordinates":[53.30,46.15]}},
    {"type":"Feature","properties":{"name":"Shaybah Field","type":"onshore","volume_bpd":1000000},"geometry":{"type":"Point","coordinates":[54.00,22.50]}},
    {"type":"Feature","properties":{"name":"Ekofisk","type":"offshore","volume_bpd":300000},"geometry":{"type":"Point","coordinates":[3.21,56.54]}},
    {"type":"Feature","properties":{"name":"Brent Field","type":"offshore","volume_bpd":100000},"geometry":{"type":"Point","coordinates":[1.72,61.05]}},
    {"type":"Feature","properties":{"name":"Zakum Field (UAE)","type":"offshore","volume_bpd":750000},"geometry":{"type":"Point","coordinates":[53.60,24.85]}},
    {"type":"Feature","properties":{"name":"Agbami (Nigeria)","type":"offshore","volume_bpd":250000},"geometry":{"type":"Point","coordinates":[4.60,4.20]}},
    {"type":"Feature","properties":{"name":"Hassi Messaoud (Algeria)","type":"onshore","volume_bpd":400000},"geometry":{"type":"Point","coordinates":[6.05,31.68]}},
    {"type":"Feature","properties":{"name":"Eagle Ford Shale","type":"onshore","volume_bpd":1200000},"geometry":{"type":"Point","coordinates":[-98.40,28.70]}},
    {"type":"Feature","properties":{"name":"Bakken Formation","type":"onshore","volume_bpd":1100000},"geometry":{"type":"Point","coordinates":[-103.50,48.10]}},
    {"type":"Feature","properties":{"name":"Vaca Muerta (Argentina)","type":"onshore","volume_bpd":350000},"geometry":{"type":"Point","coordinates":[-69.20,-38.00]}},
    {"type":"Feature","properties":{"name":"Karachaganak (Kazakhstan)","type":"onshore","volume_bpd":300000},"geometry":{"type":"Point","coordinates":[51.90,50.10]}},
    {"type":"Feature","properties":{"name":"Marlim (Brazil)","type":"offshore","volume_bpd":200000},"geometry":{"type":"Point","coordinates":[-40.00,-22.40]}},
    {"type":"Feature","properties":{"name":"Khurais Field","type":"onshore","volume_bpd":1200000},"geometry":{"type":"Point","coordinates":[48.15,24.15]}},
    {"type":"Feature","properties":{"name":"Chicontepec (Mexico)","type":"onshore","volume_bpd":150000},"geometry":{"type":"Point","coordinates":[-97.40,20.50]}},
    {"type":"Feature","properties":{"name":"Doba Basin (Chad)","type":"onshore","volume_bpd":130000},"geometry":{"type":"Point","coordinates":[16.85,8.60]}},
    {"type":"Feature","properties":{"name":"Girassol (Angola)","type":"offshore","volume_bpd":250000},"geometry":{"type":"Point","coordinates":[12.00,-7.60]}},
    {"type":"Feature","properties":{"name":"Ichthys (Australia)","type":"offshore","volume_bpd":100000},"geometry":{"type":"Point","coordinates":[123.60,-12.50]}}
  ]
}
