{"type":"FeatureCollection","features":[
{"type":"Feature","geometry":{"type":"LineString","coordinates":[[36.80,55.75],[30.30,59.95],[13.40,52.52]]},"properties":{"id":"p01","name":"Druzhba Pipeline","cap_kbpd":1200,"type":"crude"}},
{"type":"Feature","geometry":{"type":"LineString","coordinates":[[50.15,53.20],[41.60,42.00],[29.08,41.01]]},"properties":{"id":"p02","name":"BTC Pipeline","cap_kbpd":1000,"type":"crude"}},
{"type":"Feature","geometry":{"type":"LineString","coordinates":[[36.80,55.75],[30.30,59.95],[17.90,59.30]]},"properties":{"id":"p03","name":"Nord Stream","cap_kbpd":2000,"type":"gas"}},
{"type":"Feature","geometry":{"type":"LineString","coordinates":[[51.40,25.30],[54.60,24.45],[55.30,25.26]]},"properties":{"id":"p04","name":"Dolphin Gas Pipeline","cap_kbpd":800,"type":"gas"}},
{"type":"Feature","geometry":{"type":"LineString","coordinates":[[-96.80,33.00],[-93.90,29.95],[-90.10,30.00]]},"properties":{"id":"p05","name":"Keystone XL (Southern)","cap_kbpd":700,"type":"crude"}},
{"type":"Feature","geometry":{"type":"LineString","coordinates":[[-110.70,52.00],[-96.80,33.00]]},"properties":{"id":"p06","name":"Keystone Pipeline","cap_kbpd":590,"type":"crude"}},
{"type":"Feature","geometry":{"type":"LineString","coordinates":[[29.08,41.01],[19.82,41.33],[16.87,41.12]]},"properties":{"id":"p07","name":"TAP (Trans-Adriatic)","cap_kbpd":350,"type":"gas"}},
{"type":"Feature","geometry":{"type":"LineString","coordinates":[[49.05,46.35],[55.00,41.30],[69.00,41.30]]},"properties":{"id":"p08","name":"Central Asia-China Gas","cap_kbpd":1300,"type":"gas"}},
{"type":"Feature","geometry":{"type":"LineString","coordinates":[[3.70,6.45],[3.40,6.50],[2.60,6.35]]},"properties":{"id":"p09","name":"West Africa Gas Pipeline","cap_kbpd":200,"type":"gas"}},
{"type":"Feature","geometry":{"type":"LineString","coordinates":[[34.80,31.25],[35.50,32.00],[36.30,33.90]]},"properties":{"id":"p10","name":"Arab Gas Pipeline","cap_kbpd":400,"type":"gas"}},
{"type":"Feature","geometry":{"type":"LineString","coordinates":[[68.80,25.40],[72.85,19.08],[80.27,13.08]]},"properties":{"id":"p11","name":"India EWPL","cap_kbpd":450,"type":"product"}},
{"type":"Feature","geometry":{"type":"LineString","coordinates":[[-104.00,48.00],[-97.00,36.00],[-95.50,29.80]]},"properties":{"id":"p12","name":"DAPL","cap_kbpd":570,"type":"crude"}},
{"type":"Feature","geometry":{"type":"LineString","coordinates":[[28.97,41.01],[40.50,37.90],[44.40,33.30]]},"properties":{"id":"p13","name":"Kirkuk-Ceyhan","cap_kbpd":1600,"type":"crude"}},
{"type":"Feature","geometry":{"type":"LineString","coordinates":[[73.30,54.90],[87.60,53.30],[104.30,52.30]]},"properties":{"id":"p14","name":"ESPO Pipeline","cap_kbpd":1600,"type":"crude"}},
{"type":"Feature","geometry":{"type":"LineString","coordinates":[[11.80,57.70],[5.30,60.40],[2.00,58.00]]},"properties":{"id":"p15","name":"Europipe","cap_kbpd":600,"type":"gas"}}
]}
